[{"OBJECT_NAME":"STARLINK-1654","OBJECT_ID":"2020-062B","EPOCH":"2026-03-09T23:24:23.698656","MEAN_MOTION":15.68868536,"ECCENTRICITY":0.00033751,"INCLINATION":53.0444,"RA_OF_ASC_NODE":332.2394,"ARG_OF_PERICENTER":329.1833,"MEAN_ANOMALY":30.8985,"EPHEMERIS_TYPE":0,"CLASSIFICATION_TYPE":"U","NORAD_CAT_ID":46326,"ELEMENT_SET_NO":999,"REV_AT_EPOCH":30496,"BSTAR":0.00096287579,"MEAN_MOTION_DOT":0.00113674,"MEAN_MOTION_DDOT":0},{"OBJECT_NAME":"STARLINK-11078 [DTC]","OBJECT_ID":"2024-002F","EPOCH":"2026-03-09T23:15:59.372352","MEAN_MOTION":15.69662454,"ECCENTRICITY":0.00015233,"INCLINATION":53.1588,"RA_OF_ASC_NODE":272.4639,"ARG_OF_PERICENTER":108.7312,"MEAN_ANOMALY":251.3872,"EPHEMERIS_TYPE":0,"CLASSIFICATION_TYPE":"U","NORAD_CAT_ID":58710,"ELEMENT_SET_NO":999,"REV_AT_EPOCH":12648,"BSTAR":6.8216067e-5,"MEAN_MOTION_DOT":7.667e-5,"MEAN_MOTION_DDOT":0}]
